CCSDS_OMM_VERS = 2.0
CREATION_DATE  = 
ORIGINATOR     = 

OBJECT_NAME    = COSMOS 2151
OBJECT_ID      = 1991-042A
CENTER_NAME    = EARTH
REF_FRAME      = TEME
TIME_SYSTEM    = UTC
MEAN_ELEMENT_THEORY = SGP/SGP4

EPOCH          = 2025-11-29T06:40:55.167456
MEAN_MOTION    = 14.99610698
ECCENTRICITY   = .00136909
INCLINATION    = 82.4966
RA_OF_ASC_NODE = 180.4744
ARG_OF_PERICENTER = 43.1055
MEAN_ANOMALY   = 317.1238

EPHEMERIS_TYPE = 0
CLASSIFICATION_TYPE = U
NORAD_CAT_ID   = 21422
ELEMENT_SET_NO = 999
REV_AT_EPOCH   = 84814
BSTAR          = .14360847E-3
MEAN_MOTION_DOT = .1797E-4
MEAN_MOTION_DDOT = 0

CCSDS_OMM_VERS = 2.0
CREATION_DATE  = 
ORIGINATOR     = 

OBJECT_NAME    = SL-14 R/B
OBJECT_ID      = 1991-042B
CENTER_NAME    = EARTH
REF_FRAME      = TEME
TIME_SYSTEM    = UTC
MEAN_ELEMENT_THEORY = SGP/SGP4

EPOCH          = 2025-11-29T05:00:04.241952
MEAN_MOTION    = 14.81719050
ECCENTRICITY   = .00162638
INCLINATION    = 82.4916
RA_OF_ASC_NODE = 314.4134
ARG_OF_PERICENTER = 206.5941
MEAN_ANOMALY   = 153.4441

EPHEMERIS_TYPE = 0
CLASSIFICATION_TYPE = U
NORAD_CAT_ID   = 21423
ELEMENT_SET_NO = 999
REV_AT_EPOCH   = 83819
BSTAR          = .62199035E-4
MEAN_MOTION_DOT = .514E-5
MEAN_MOTION_DDOT = 0

CCSDS_OMM_VERS = 2.0
CREATION_DATE  = 
ORIGINATOR     = 

OBJECT_NAME    = ERS-1
OBJECT_ID      = 1991-050A
CENTER_NAME    = EARTH
REF_FRAME      = TEME
TIME_SYSTEM    = UTC
MEAN_ELEMENT_THEORY = SGP/SGP4

EPOCH          = 2025-11-29T07:41:26.544768
MEAN_MOTION    = 14.39348284
ECCENTRICITY   = .0032722
INCLINATION    = 98.7914
RA_OF_ASC_NODE = 344.0394
ARG_OF_PERICENTER = 138.7241
MEAN_ANOMALY   = 221.6428

EPHEMERIS_TYPE = 0
CLASSIFICATION_TYPE = U
NORAD_CAT_ID   = 21574
ELEMENT_SET_NO = 999
REV_AT_EPOCH   = 80129
BSTAR          = .12194451E-3
MEAN_MOTION_DOT = .335E-5
MEAN_MOTION_DDOT = 0

CCSDS_OMM_VERS = 2.0
CREATION_DATE  = 
ORIGINATOR     = 

OBJECT_NAME    = ARIANE 40 R/B
OBJECT_ID      = 1991-050F
CENTER_NAME    = EARTH
REF_FRAME      = TEME
TIME_SYSTEM    = UTC
MEAN_ELEMENT_THEORY = SGP/SGP4

EPOCH          = 2025-11-29T02:59:21.419808
MEAN_MOTION    = 14.42795384
ECCENTRICITY   = .00036045
INCLINATION    = 98.2185
RA_OF_ASC_NODE = 24.0454
ARG_OF_PERICENTER = 38.4473
MEAN_ANOMALY   = 321.6974

EPHEMERIS_TYPE = 0
CLASSIFICATION_TYPE = U
NORAD_CAT_ID   = 21610
ELEMENT_SET_NO = 999
REV_AT_EPOCH   = 80449
BSTAR          = .13062803E-3
MEAN_MOTION_DOT = .394E-5
MEAN_MOTION_DDOT = 0

CCSDS_OMM_VERS = 2.0
CREATION_DATE  = 
ORIGINATOR     = 

OBJECT_NAME    = INTERCOSMOS 25
OBJECT_ID      = 1991-086A
CENTER_NAME    = EARTH
REF_FRAME      = TEME
TIME_SYSTEM    = UTC
MEAN_ELEMENT_THEORY = SGP/SGP4

EPOCH          = 2025-11-29T02:17:16.573344
MEAN_MOTION    = 12.11652005
ECCENTRICITY   = .14873462
INCLINATION    = 82.6067
RA_OF_ASC_NODE = 10.8271
ARG_OF_PERICENTER = 333.8234
MEAN_ANOMALY   = 19.4420

EPHEMERIS_TYPE = 0
CLASSIFICATION_TYPE = U
NORAD_CAT_ID   = 21819
ELEMENT_SET_NO = 999
REV_AT_EPOCH   = 48450
BSTAR          = .35462101E-3
MEAN_MOTION_DOT = .1795E-4
MEAN_MOTION_DDOT = 0

CCSDS_OMM_VERS = 2.0
CREATION_DATE  = 
ORIGINATOR     = 

OBJECT_NAME    = SL-8 R/B
OBJECT_ID      = 1992-008B
CENTER_NAME    = EARTH
REF_FRAME      = TEME
TIME_SYSTEM    = UTC
MEAN_ELEMENT_THEORY = SGP/SGP4

EPOCH          = 2025-11-29T06:56:17.527200
MEAN_MOTION    = 13.75954439
ECCENTRICITY   = .0035857
INCLINATION    = 82.9265
RA_OF_ASC_NODE = 342.4524
ARG_OF_PERICENTER = 56.5238
MEAN_ANOMALY   = 314.1721

EPHEMERIS_TYPE = 0
CLASSIFICATION_TYPE = U
NORAD_CAT_ID   = 21876
ELEMENT_SET_NO = 999
REV_AT_EPOCH   = 69561
BSTAR          = .13387849E-3
MEAN_MOTION_DOT = .146E-5
MEAN_MOTION_DDOT = 0

CCSDS_OMM_VERS = 2.0
CREATION_DATE  = 
ORIGINATOR     = 

OBJECT_NAME    = SL-8 R/B
OBJECT_ID      = 1992-020B
CENTER_NAME    = EARTH
REF_FRAME      = TEME
TIME_SYSTEM    = UTC
MEAN_ELEMENT_THEORY = SGP/SGP4

EPOCH          = 2025-11-29T06:01:49.287360
MEAN_MOTION    = 13.75524291
ECCENTRICITY   = .00280787
INCLINATION    = 82.9315
RA_OF_ASC_NODE = 228.3325
ARG_OF_PERICENTER = 216.4201
MEAN_ANOMALY   = 267.7954

EPHEMERIS_TYPE = 0
CLASSIFICATION_TYPE = U
NORAD_CAT_ID   = 21938
ELEMENT_SET_NO = 999
REV_AT_EPOCH   = 68732
BSTAR          = .51228978E-4
MEAN_MOTION_DOT = .64E-6
MEAN_MOTION_DDOT = 0

CCSDS_OMM_VERS = 2.0
CREATION_DATE  = 
ORIGINATOR     = 

OBJECT_NAME    = USA 81
OBJECT_ID      = 1992-023A
CENTER_NAME    = EARTH
REF_FRAME      = TEME
TIME_SYSTEM    = UTC
MEAN_ELEMENT_THEORY = SGP/SGP4

EPOCH          = 2025-11-29T03:09:57.227040
MEAN_MOTION    = 14.32319439
ECCENTRICITY   = .00020265
INCLINATION    = 85.0091
RA_OF_ASC_NODE = 189.4234
ARG_OF_PERICENTER = 64.2447
MEAN_ANOMALY   = 295.8955

EPHEMERIS_TYPE = 0
CLASSIFICATION_TYPE = U
NORAD_CAT_ID   = 21949
ELEMENT_SET_NO = 999
REV_AT_EPOCH   = 8039
BSTAR          = .6834315E-4
MEAN_MOTION_DOT = .204E-5
MEAN_MOTION_DDOT = 0

CCSDS_OMM_VERS = 2.0
CREATION_DATE  = 
ORIGINATOR     = 

OBJECT_NAME    = COSMOS 2219
OBJECT_ID      = 1992-076A
CENTER_NAME    = EARTH
REF_FRAME      = TEME
TIME_SYSTEM    = UTC
MEAN_ELEMENT_THEORY = SGP/SGP4

EPOCH          = 2025-11-29T03:25:26.257728
MEAN_MOTION    = 14.14065413
ECCENTRICITY   = .00186956
INCLINATION    = 71.0600
RA_OF_ASC_NODE = 228.2550
ARG_OF_PERICENTER = 345.7785
MEAN_ANOMALY   = 14.2808

EPHEMERIS_TYPE = 0
CLASSIFICATION_TYPE = U
NORAD_CAT_ID   = 22219
ELEMENT_SET_NO = 999
REV_AT_EPOCH   = 70416
BSTAR          = -.10638389E-3
MEAN_MOTION_DOT = -.25E-5
MEAN_MOTION_DDOT = 0

CCSDS_OMM_VERS = 2.0
CREATION_DATE  = 
ORIGINATOR     = 

OBJECT_NAME    = SL-16 R/B
OBJECT_ID      = 1992-076B
CENTER_NAME    = EARTH
REF_FRAME      = TEME
TIME_SYSTEM    = UTC
MEAN_ELEMENT_THEORY = SGP/SGP4

EPOCH          = 2025-11-29T07:16:54.729408
MEAN_MOTION    = 14.16839544
ECCENTRICITY   = .00150718
INCLINATION    = 71.0016
RA_OF_ASC_NODE = 39.8351
ARG_OF_PERICENTER = 251.6581
MEAN_ANOMALY   = 171.2573

EPHEMERIS_TYPE = 0
CLASSIFICATION_TYPE = U
NORAD_CAT_ID   = 22220
ELEMENT_SET_NO = 999
REV_AT_EPOCH   = 70761
BSTAR          = .13871279E-3
MEAN_MOTION_DOT = .23E-5
MEAN_MOTION_DDOT = 0

CCSDS_OMM_VERS = 2.0
CREATION_DATE  = 
ORIGINATOR     = 

OBJECT_NAME    = COSMOS 2221
OBJECT_ID      = 1992-080A
CENTER_NAME    = EARTH
REF_FRAME      = TEME
TIME_SYSTEM    = UTC
MEAN_ELEMENT_THEORY = SGP/SGP4

EPOCH          = 2025-11-29T07:18:03.642912
MEAN_MOTION    = 14.95681489
ECCENTRICITY   = .00150553
INCLINATION    = 82.5057
RA_OF_ASC_NODE = 15.1846
ARG_OF_PERICENTER = 164.1750
MEAN_ANOMALY   = 195.9945

EPHEMERIS_TYPE = 0
CLASSIFICATION_TYPE = U
NORAD_CAT_ID   = 22236
ELEMENT_SET_NO = 999
REV_AT_EPOCH   = 76578
BSTAR          = .14878914E-3
MEAN_MOTION_DOT = .1684E-4
MEAN_MOTION_DDOT = 0

CCSDS_OMM_VERS = 2.0
CREATION_DATE  = 
ORIGINATOR     = 

OBJECT_NAME    = SL-16 R/B
OBJECT_ID      = 1992-093B
CENTER_NAME    = EARTH
REF_FRAME      = TEME
TIME_SYSTEM    = UTC
MEAN_ELEMENT_THEORY = SGP/SGP4

EPOCH          = 2025-11-29T02:30:32.694912
MEAN_MOTION    = 14.15426561
ECCENTRICITY   = .00019531
INCLINATION    = 71.0207
RA_OF_ASC_NODE = 215.4178
ARG_OF_PERICENTER = 113.7118
MEAN_ANOMALY   = 246.4211

EPHEMERIS_TYPE = 0
CLASSIFICATION_TYPE = U
NORAD_CAT_ID   = 22285
ELEMENT_SET_NO = 999
REV_AT_EPOCH   = 69892
BSTAR          = -.99089408E-4
MEAN_MOTION_DOT = -.241E-5
MEAN_MOTION_DDOT = 0

