COSMOS 2151             
1 21422U 91042A   25333.27841629  .00001797  00000+0  14361-3 0  9993
2 21422  82.4966 180.4744 0013690  43.1055 317.1238 14.99610698848146
SL-14 R/B               
1 21423U 91042B   25333.20838243  .00000514  00000+0  62199-4 0  9994
2 21423  82.4916 314.4134 0016263 206.5941 153.4441 14.81719050838196
ERS-1                   
1 21574U 91050A   25333.32044612  .00000335  00000+0  12194-3 0  9992
2 21574  98.7914 344.0394 0032722 138.7241 221.6428 14.39348284801299
ARIANE 40 R/B           
1 21610U 91050F   25333.12455347  .00000394  00000+0  13063-3 0  9993
2 21610  98.2185  24.0454 0003604  38.4473 321.6974 14.42795384804490
INTERCOSMOS 25          
1 21819U 91086A   25333.09533071  .00001795  00000+0  35462-3 0  9993
2 21819  82.6067  10.8271 1487346 333.8234  19.4420 12.11652005484504
SL-8 R/B                
1 21876U 92008B   25333.28909175  .00000146  00000+0  13388-3 0  9996
2 21876  82.9265 342.4524 0035857  56.5238 314.1721 13.75954439695615
SL-8 R/B                
1 21938U 92020B   25333.25126490  .00000064  00000+0  51229-4 0  9993
2 21938  82.9315 228.3325 0028078 216.4201 267.7954 13.75524291687324
USA 81                  
1 21949U 92023A   25333.13191235  .00000204  00000+0  68343-4 0  9995
2 21949  85.0091 189.4234 0002026  64.2447 295.8955 14.32319439 80390
COSMOS 2219             
1 22219U 92076A   25333.14266502 -.00000250  00000+0 -10638-3 0  9991
2 22219  71.0600 228.2550 0018695 345.7785  14.2808 14.14065413704164
SL-16 R/B               
1 22220U 92076B   25333.30341122  .00000230  00000+0  13871-3 0  9991
2 22220  71.0016  39.8351 0015071 251.6581 171.2573 14.16839544707618
COSMOS 2221             
1 22236U 92080A   25333.30420883  .00001684  00000+0  14879-3 0  9998
2 22236  82.5057  15.1846 0015055 164.1750 195.9945 14.95681489765789
SL-16 R/B               
1 22285U 92093B   25333.10454508 -.00000241  00000+0 -99089-4 0  9992
2 22285  71.0207 215.4178 0001953 113.7118 246.4211 14.15426561698925
